{
    "links": {
        "self": "http://www.neowsapp.com/rest/v1/neo/3757898?api_key=iIulBulltgU6a56xZRHN4H3l9WmuAYTsLGpBGhQ2"
    },
    "id": "3757898",
    "neo_reference_id": "3757898",
    "name": "(2016 QO11)",
    "designation": "2016 QO11",
    "nasa_jpl_url": "http://ssd.jpl.nasa.gov/sbdb.cgi?sstr=3757898",
    "absolute_magnitude_h": 22.1,
    "estimated_diameter": {
        "kilometers": {
            "estimated_diameter_min": 0.1010543415,
            "estimated_diameter_max": 0.2259643771
        },
        "meters": {
            "estimated_diameter_min": 101.054341542,
            "estimated_diameter_max": 225.9643771094
        },
        "miles": {
            "estimated_diameter_min": 0.0627922373,
            "estimated_diameter_max": 0.140407711
        },
        "feet": {
            "estimated_diameter_min": 331.5431259047,
            "estimated_diameter_max": 741.3529669956
        }
    },
    "is_potentially_hazardous_asteroid": false,
    "close_approach_data": [
        {
            "close_approach_date": "2003-09-09",
            "close_approach_date_full": "2003-Sep-09 07:48",
            "epoch_date_close_approach": 1063093680000,
            "relative_velocity": {
                "kilometers_per_second": "5.1170205194",
                "kilometers_per_hour": "18421.2738697222",
                "miles_per_hour": "11446.2631997726"
            },
            "miss_distance": {
                "astronomical": "0.3095195147",
                "lunar": "120.4030912183",
                "kilometers": "46303460.122553689",
                "miles": "28771635.9616673482"
            },
            "orbiting_body": "Earth"
        },
        {
            "close_approach_date": "2016-08-27",
            "close_approach_date_full": "2016-Aug-27 19:56",
            "epoch_date_close_approach": 1472327760000,
            "relative_velocity": {
                "kilometers_per_second": "4.3962597669",
                "kilometers_per_hour": "15826.535160848",
                "miles_per_hour": "9833.9934725836"
            },
            "miss_distance": {
                "astronomical": "0.2781649148",
                "lunar": "108.2061518572",
                "kilometers": "41612878.762811476",
                "miles": "25857043.8561553288"
            },
            "orbiting_body": "Earth"
        }
    ],
    "orbital_data": {
        "orbit_id": "6",
        "orbit_determination_date": "2017-04-06 08:24:22",
        "first_observation_date": "2016-08-27",
        "last_observation_date": "2016-11-06",
        "data_arc_in_days": 71,
        "observations_used": 28,
        "orbit_uncertainty": "6",
        "minimum_orbit_intersection": ".226221",
        "jupiter_tisserand_invariant": "3.525",
        "epoch_osculation": "2459000.5",
        "eccentricity": ".4410576482816653",
        "semi_major_axis": "2.200235232312409",
        "inclination": "6.438562047853365",
        "ascending_node_longitude": "142.4305556180322",
        "orbital_period": "1192.070934520543",
        "perihelion_distance": "1.229804655082234",
        "perihelion_argument": "202.818720821336",
        "aphelion_distance": "3.170665809542583",
        "perihelion_time": "2458840.566631583698",
        "mean_anomaly": "48.29914979264735",
        "mean_motion": ".3019954514240328",
        "equinox": "J2000",
        "orbit_class": {
            "orbit_class_type": "AMO",
            "orbit_class_description": "Near-Earth asteroid orbits similar to that of 1221 Amor",
            "orbit_class_range": "1.017 AU < q (perihelion) < 1.3 AU"
        }
    },
    "is_sentry_object": false
}